{
  "type": "FeatureCollection",
  "features": [
    {
      "type": "Feature",
      "properties": {
        "norad_id": 36695,
        "name": "FENGYUN 1C DEB",
        "group": "fengyun-1c-debris",
        "lat": 81.2088995081212,
        "lon": -110.91180666317572,
        "alt_km": 684.7636871637305,
        "timestamp": "2025-12-02T13:52:17.550590+00:00",
        "meta_object_name": "FENGYUN 1C DEB",
        "meta_object_id": "1999-025DZR",
        "meta_epoch": "2025-12-02T05:08:42.496800",
        "meta_mean_motion": 14.43719766,
        "meta_eccentricity": 0.02567667,
        "meta_inclination": 98.2188,
        "meta_ra_of_asc_node": 317.8964,
        "meta_arg_of_pericenter": 162.2314,
        "meta_mean_anomaly": 198.8066,
        "meta_ephemeris_type": 0,
        "meta_classification_type": "U",
        "meta_norad_cat_id": 36695,
        "meta_element_set_no": 999,
        "meta_rev_at_epoch": 89416,
        "meta_bstar": 0.00021066886,
        "meta_mean_motion_dot": 1.017e-05,
        "meta_mean_motion_ddot": 0,
        "tle_line1": "1 36695U 99025DZR 25336.21438075  .00001017  00000+0  21067-3 0  9990",
        "tle_line2": "2 36695  98.2188 317.8964 0256766 162.2314 198.8066 14.43719766894160"
      },
      "geometry": {
        "type": "Point",
        "coordinates": [
          -110.91180666317572,
          81.2088995081212
        ]
      }
    },
    {
      "type": "Feature",
      "properties": {
        "norad_id": 36696,
        "name": "FENGYUN 1C DEB",
        "group": "fengyun-1c-debris",
        "lat": 32.748710515187454,
        "lon": 170.92833783211952,
        "alt_km": 773.9015686693147,
        "timestamp": "2025-12-02T13:52:17.550600+00:00",
        "meta_object_name": "FENGYUN 1C DEB",
        "meta_object_id": "1999-025DZS",
        "meta_epoch": "2025-11-24T18:16:57.315936",
        "meta_mean_motion": 14.38880004,
        "meta_eccentricity": 0.0023648,
        "meta_inclination": 98.9926,
        "meta_ra_of_asc_node": 336.8941,
        "meta_arg_of_pericenter": 22.9721,
        "meta_mean_anomaly": 337.2518,
        "meta_ephemeris_type": 0,
        "meta_classification_type": "U",
        "meta_norad_cat_id": 36696,
        "meta_element_set_no": 999,
        "meta_rev_at_epoch": 64137,
        "meta_bstar": 0.0024257,
        "meta_mean_motion_dot": 7.452e-05,
        "meta_mean_motion_ddot": 0,
        "tle_line1": "1 36696U 99025DZS 25328.76177449  .00007452  00000+0  24257-2 0  9999",
        "tle_line2": "2 36696  98.9926 336.8941 0023648  22.9721 337.2518 14.38880004641371"
      },
      "geometry": {
        "type": "Point",
        "coordinates": [
          170.92833783211952,
          32.748710515187454
        ]
      }
    },
    {
      "type": "Feature",
      "properties": {
        "norad_id": 36699,
        "name": "FENGYUN 1C DEB",
        "group": "fengyun-1c-debris",
        "lat": 2.53686072792566,
        "lon": -29.0387435750814,
        "alt_km": 875.6953931018497,
        "timestamp": "2025-12-02T13:52:17.550610+00:00",
        "meta_object_name": "FENGYUN 1C DEB",
        "meta_object_id": "1999-025DZV",
        "meta_epoch": "2025-12-02T05:25:44.765184",
        "meta_mean_motion": 14.24274466,
        "meta_eccentricity": 0.00941626,
        "meta_inclination": 98.5587,
        "meta_ra_of_asc_node": 331.0009,
        "meta_arg_of_pericenter": 160.5985,
        "meta_mean_anomaly": 199.8818,
        "meta_ephemeris_type": 0,
        "meta_classification_type": "U",
        "meta_norad_cat_id": 36699,
        "meta_element_set_no": 999,
        "meta_rev_at_epoch": 73177,
        "meta_bstar": 0.00029937866,
        "meta_mean_motion_dot": 6.81e-06,
        "meta_mean_motion_ddot": 0,
        "tle_line1": "1 36699U 99025DZV 25336.22621256  .00000681  00000+0  29938-3 0  9991",
        "tle_line2": "2 36699  98.5587 331.0009 0094162 160.5985 199.8818 14.24274466731778"
      },
      "geometry": {
        "type": "Point",
        "coordinates": [
          -29.0387435750814,
          2.53686072792566
        ]
      }
    },
    {
      "type": "Feature",
      "properties": {
        "norad_id": 36701,
        "name": "FENGYUN 1C DEB",
        "group": "fengyun-1c-debris",
        "lat": 77.14786668889282,
        "lon": -169.66925044408273,
        "alt_km": 1179.5442863952467,
        "timestamp": "2025-12-02T13:52:17.550620+00:00",
        "meta_object_name": "FENGYUN 1C DEB",
        "meta_object_id": "1999-025DZX",
        "meta_epoch": "2025-11-30T15:53:09.500928",
        "meta_mean_motion": 13.71224206,
        "meta_eccentricity": 0.02612081,
        "meta_inclination": 102.7441,
        "meta_ra_of_asc_node": 285.087,
        "meta_arg_of_pericenter": 280.9421,
        "meta_mean_anomaly": 76.243,
        "meta_ephemeris_type": 0,
        "meta_classification_type": "U",
        "meta_norad_cat_id": 36701,
        "meta_element_set_no": 999,
        "meta_rev_at_epoch": 60973,
        "meta_bstar": 0.0027853288,
        "meta_mean_motion_dot": 3.111e-05,
        "meta_mean_motion_ddot": 0,
        "tle_line1": "1 36701U 99025DZX 25334.66191552  .00003111  00000+0  27853-2 0  9996",
        "tle_line2": "2 36701 102.7441 285.0870 0261208 280.9421  76.2430 13.71224206609738"
      },
      "geometry": {
        "type": "Point",
        "coordinates": [
          -169.66925044408273,
          77.14786668889282
        ]
      }
    },
    {
      "type": "Feature",
      "properties": {
        "norad_id": 36707,
        "name": "FENGYUN 1C DEB",
        "group": "fengyun-1c-debris",
        "lat": 33.895303163292226,
        "lon": -151.21074629149714,
        "alt_km": 796.511626450525,
        "timestamp": "2025-12-02T13:52:17.550630+00:00",
        "meta_object_name": "FENGYUN 1C DEB",
        "meta_object_id": "1999-025EAD",
        "meta_epoch": "2025-11-29T08:56:27.364416",
        "meta_mean_motion": 14.17242716,
        "meta_eccentricity": 0.00499722,
        "meta_inclination": 98.7542,
        "meta_ra_of_asc_node": 19.691,
        "meta_arg_of_pericenter": 159.2794,
        "meta_mean_anomaly": 201.0422,
        "meta_ephemeris_type": 0,
        "meta_classification_type": "U",
        "meta_norad_cat_id": 36707,
        "meta_element_set_no": 999,
        "meta_rev_at_epoch": 63890,
        "meta_bstar": 0.0007860803,
        "meta_mean_motion_dot": 1.563e-05,
        "meta_mean_motion_ddot": 0,
        "tle_line1": "1 36707U 99025EAD 25333.37253894  .00001563  00000+0  78608-3 0  9991",
        "tle_line2": "2 36707  98.7542  19.6910 0049972 159.2794 201.0422 14.17242716638906"
      },
      "geometry": {
        "type": "Point",
        "coordinates": [
          -151.21074629149714,
          33.895303163292226
        ]
      }
    },
    {
      "type": "Feature",
      "properties": {
        "norad_id": 36710,
        "name": "FENGYUN 1C DEB",
        "group": "fengyun-1c-debris",
        "lat": -50.1969587209505,
        "lon": 43.95083269428584,
        "alt_km": 739.0953710452804,
        "timestamp": "2025-12-02T13:52:17.550640+00:00",
        "meta_object_name": "FENGYUN 1C DEB",
        "meta_object_id": "1999-025EAG",
        "meta_epoch": "2025-12-01T21:32:31.905600",
        "meta_mean_motion": 14.49639055,
        "meta_eccentricity": 0.0067671,
        "meta_inclination": 98.3816,
        "meta_ra_of_asc_node": 33.083,
        "meta_arg_of_pericenter": 214.3646,
        "meta_mean_anomaly": 145.3162,
        "meta_ephemeris_type": 0,
        "meta_classification_type": "U",
        "meta_norad_cat_id": 36710,
        "meta_element_set_no": 999,
        "meta_rev_at_epoch": 64796,
        "meta_bstar": 0.0017482882,
        "meta_mean_motion_dot": 6.877e-05,
        "meta_mean_motion_ddot": 0,
        "tle_line1": "1 36710U 99025EAG 25335.89759150  .00006877  00000+0  17483-2 0  9996",
        "tle_line2": "2 36710  98.3816  33.0830 0067671 214.3646 145.3162 14.49639055647964"
      },
      "geometry": {
        "type": "Point",
        "coordinates": [
          43.95083269428584,
          -50.1969587209505
        ]
      }
    },
    {
      "type": "Feature",
      "properties": {
        "norad_id": 36711,
        "name": "FENGYUN 1C DEB",
        "group": "fengyun-1c-debris",
        "lat": 78.58205506755904,
        "lon": -115.7804894801821,
        "alt_km": 800.5177109979459,
        "timestamp": "2025-12-02T13:52:17.550650+00:00",
        "meta_object_name": "FENGYUN 1C DEB",
        "meta_object_id": "1999-025EAH",
        "meta_epoch": "2025-11-29T18:49:32.545344",
        "meta_mean_motion": 14.42080972,
        "meta_eccentricity": 0.01000486,
        "meta_inclination": 100.8061,
        "meta_ra_of_asc_node": 349.6584,
        "meta_arg_of_pericenter": 244.1532,
        "meta_mean_anomaly": 114.9305,
        "meta_ephemeris_type": 0,
        "meta_classification_type": "U",
        "meta_norad_cat_id": 36711,
        "meta_element_set_no": 999,
        "meta_rev_at_epoch": 64124,
        "meta_bstar": 0.0024295961,
        "meta_mean_motion_dot": 8.419e-05,
        "meta_mean_motion_ddot": 0,
        "tle_line1": "1 36711U 99025EAH 25333.78440446  .00008419  00000+0  24296-2 0  9992",
        "tle_line2": "2 36711 100.8061 349.6584 0100048 244.1532 114.9305 14.42080972641246"
      },
      "geometry": {
        "type": "Point",
        "coordinates": [
          -115.7804894801821,
          78.58205506755904
        ]
      }
    }
  ]
}